NORAD_CAT_ID,OBJECT_NAME,OBJECT_TYPE,EPOCH,MEAN_MOTION,ECCENTRICITY,INCLINATION,RA_OF_ASC_NODE,ARG_OF_PERICENTER,MEAN_ANOMALY,BSTAR,MEAN_MOTION_DOT,MEAN_MOTION_DDOT,TLE_LINE0,TLE_LINE1,TLE_LINE2,SEMIMAJOR_AXIS,PERIOD,APOGEE,PERIGEE,DECAYED
55952.0,STARLINK-5893,PAYLOAD,2023-05-29 20:50:50,15.69931031,0.0003085,69.9983,335.5376,262.865,97.2195,1.4225e-05,1.499e-05,0.0,0 STARLINK-5893,1 55952U 23037AQ  23149.86864526  .00001499  00000-0  14225-4 0  9996,2 55952  69.9983 335.5376 0003085 262.8650  97.2195 15.69931031 11664,6737.231,91.724,361.175,357.018,0.0
55952.0,STARLINK-5893,PAYLOAD,2023-05-29 22:22:35,15.69932672,0.0003712,69.9969,335.3548,278.9352,81.1423,1.4857e-05,1.574e-05,0.0,0 STARLINK-5893,1 55952U 23037AQ  23149.93236020  .00001574  00000-0  14857-4 0  9991,2 55952  69.9969 335.3548 0003712 278.9352  81.1423 15.69932672 12019,6737.227,91.724,361.592,356.591,0.0
55952.0,STARLINK-5893,PAYLOAD,2023-05-30 06:01:22,15.69918692,0.0003567,69.9972,334.4601,273.7434,86.3354,1.613e-05,1.727e-05,0.0,0 STARLINK-5893,1 55952U 23037AQ  23150.25095160  .00001727  00000-0  16130-4 0  9992,2 55952  69.9972 334.4601 0003567 273.7434  86.3354 15.69918692 12066,6737.267,91.724,361.535,356.728,0.0
55952.0,STARLINK-5893,PAYLOAD,2023-05-30 12:08:22,15.69926447,0.0003543,69.998,333.7434,270.6653,89.4137,5.9983e-06,5.08e-06,0.0,0 STARLINK-5893,1 55952U 23037AQ  23150.50581484  .00000508  00000-0  59983-5 0  9999,2 55952  69.9980 333.7434 0003543 270.6653  89.4137 15.69926447 11760,6737.244,91.724,361.496,356.722,0.0
55952.0,STARLINK-5893,PAYLOAD,2023-05-30 15:11:52,15.69927528,0.0003597,69.9978,333.3848,270.8337,89.2446,1.1093e-05,1.121e-05,0.0,0 STARLINK-5893,1 55952U 23037AQ  23150.63324627  .00001121  00000-0  11093-4 0  9998,2 55952  69.9978 333.3848 0003597 270.8337  89.2446 15.69927528 12125,6737.241,91.724,361.53,356.683,0.0
55952.0,STARLINK-5893,PAYLOAD,2023-05-30 21:18:52,15.6992971,0.0003593,69.9975,332.6682,270.9701,89.1083,1.1428e-05,1.162e-05,0.0,0 STARLINK-5893,1 55952U 23037AQ  23150.88811140  .00001162  00000-0  11428-4 0  9993,2 55952  69.9975 332.6682 0003593 270.9701  89.1083 15.69929710 11829,6737.235,91.724,361.521,356.679,0.0
55952.0,STARLINK-5893,PAYLOAD,2023-05-31 14:08:09,15.69919444,0.000347,69.9977,330.6973,274.9565,85.1234,6.5712e-06,5.77e-06,0.0,0 STARLINK-5893,1 55952U 23037AQ  23151.58900456  .00000577  00000-0  65712-5 0  9995,2 55952  69.9977 330.6973 0003470 274.9565  85.1234 15.69919444 11937,6737.264,91.724,361.467,356.792,0.0
55952.0,STARLINK-5893,PAYLOAD,2023-05-31 18:43:23,15.69943188,0.0003469,69.9977,330.1619,268.4894,91.5905,1.9521e-05,2.137e-05,0.0,0 STARLINK-5893,1 55952U 23037AQ  23151.78013824  .00002137  00000-0  19521-4 0  9991,2 55952  69.9977 330.1619 0003469 268.4894  91.5905 15.69943188 12300,6737.197,91.723,361.399,356.724,0.0
55952.0,STARLINK-5893,PAYLOAD,2023-05-31 21:46:55,15.69926618,0.0003731,69.9969,329.8021,274.553,85.524,-4.8425e-07,-2.71e-06,0.0,0 STARLINK-5893,1 55952U 23037AQ  23151.90758460 -.00000271  00000-0 -48425-6 0  9993,2 55952  69.9969 329.8021 0003731 274.5530  85.5240 15.69926618 11987,6737.244,91.724,361.623,356.595,0.0
55952.0,STARLINK-5893,PAYLOAD,2023-06-01 05:25:40,15.69925686,0.0003572,69.9975,328.9071,272.5527,87.526,6.2049e-06,5.33e-06,0.0,0 STARLINK-5893,1 55952U 23037AQ  23152.22616758  .00000533  00000-0  62049-5 0  9998,2 55952  69.9975 328.9071 0003572 272.5527  87.5260 15.69925686 12031,6737.247,91.724,361.518,356.705,0.0
55952.0,STARLINK-5893,PAYLOAD,2023-06-02 13:32:28,15.69923252,0.0003622,69.9989,325.1441,272.8323,87.2458,1.5741e-05,1.68e-05,0.0,0 STARLINK-5893,1 55952U 23037AQ  23153.56421949  .00001680  00000-0  15741-4 0  9992,2 55952  69.9989 325.1441 0003622 272.8323  87.2458 15.69923252 12245,6737.254,91.724,361.559,356.678,0.0
55952.0,STARLINK-5893,PAYLOAD,2023-06-02 18:07:43,15.69930745,0.0003692,69.9985,324.6075,273.3188,86.7585,2.1463e-05,2.369e-05,0.0,0 STARLINK-5893,1 55952U 23037AQ  23153.75536425  .00002369  00000-0  21463-4 0  9992,2 55952  69.9985 324.6075 0003692 273.3188  86.7585 15.69930745 12611,6737.232,91.724,361.585,356.61,0.0
55952.0,STARLINK-5893,PAYLOAD,2023-06-02 21:11:13,15.6993405,0.0003747,69.9982,324.2492,272.8601,87.2165,1.3391e-05,1.398e-05,0.0,0 STARLINK-5893,1 55952U 23037AQ  23153.88279699  .00001398  00000-0  13391-4 0  9995,2 55952  69.9982 324.2492 0003747 272.8601  87.2165 15.69934050 12299,6737.223,91.724,361.612,356.563,0.0
55952.0,STARLINK-5893,PAYLOAD,2023-06-03 10:57:00,15.69918058,0.0003759,69.9964,322.6369,270.1251,89.9514,1.3834e-05,1.45e-05,0.0,0 STARLINK-5893,1 55952U 23037AQ  23154.45625810  .00001450  00000-0  13834-4 0  9990,2 55952  69.9964 322.6369 0003759 270.1251  89.9514 15.69918058 12724,6737.268,91.725,361.666,356.601,0.0
55952.0,STARLINK-5893,PAYLOAD,2023-06-03 14:00:30,15.69924578,0.0003564,69.9983,322.279,270.8604,89.2184,1.9336e-05,2.113e-05,0.0,0 STARLINK-5893,1 55952U 23037AQ  23154.58368823  .00002113  00000-0  19336-4 0  9992,2 55952  69.9983 322.2790 0003564 270.8604  89.2184 15.69924578 12407,6737.25,91.724,361.516,356.714,0.0
55952.0,STARLINK-5893,PAYLOAD,2023-06-03 18:35:45,15.69928976,0.000332,69.9998,321.7437,266.1292,93.9524,1.4758e-05,1.562e-05,0.0,0 STARLINK-5893,1 55952U 23037AQ  23154.77483479  .00001562  00000-0  14758-4 0  9998,2 55952  69.9998 321.7437 0003320 266.1292  93.9524 15.69928976 12772,6737.237,91.724,361.339,356.865,0.0
55952.0,STARLINK-5893,PAYLOAD,2023-06-04 14:28:32,15.69929915,0.0002813,70.0007,319.4146,249.7202,110.3692,4.6944e-06,3.52e-06,0.0,0 STARLINK-5893,1 55952U 23037AQ  23155.60315319  .00000352  00000-0  46944-5 0  9997,2 55952  70.0007 319.4146 0002813 249.7202 110.3692 15.69929915 12562,6737.235,91.724,360.995,357.204,0.0
55952.0,STARLINK-5893,PAYLOAD,2023-06-04 19:03:47,15.69933538,0.0002808,70.0005,318.8763,260.9873,99.1005,5.9429e-06,5.02e-06,0.0,0 STARLINK-5893,1 55952U 23037AQ  23155.79430058  .00000502  00000-0  59429-5 0  9994,2 55952  70.0005 318.8763 0002808 260.9873  99.1005 15.69933538 12930,6737.224,91.724,360.981,357.197,0.0
55952.0,STARLINK-5893,PAYLOAD,2023-06-04 20:35:32,15.69932854,0.0003154,69.9992,318.6952,272.4411,87.6423,6.9497e-06,6.23e-06,0.0,0 STARLINK-5893,1 55952U 23037AQ  23155.85801758  .00000623  00000-0  69497-5 0  9990,2 55952  69.9992 318.6952 0003154 272.4411  87.6423 15.69932854 12601,6737.226,91.724,361.216,356.966,0.0
55952.0,STARLINK-5893,PAYLOAD,2023-06-05 04:14:19,15.69911689,0.0003299,69.9983,317.8009,275.2432,84.8387,4.2816e-06,3.02e-06,0.0,0 STARLINK-5893,1 55952U 23037AQ  23156.17661675  .00000302  00000-0  42816-5 0  9998,2 55952  69.9983 317.8009 0003299 275.2432  84.8387 15.69911689 12992,6737.287,91.725,361.374,356.929,0.0
55952.0,STARLINK-5893,PAYLOAD,2023-06-05 10:21:19,15.69920624,0.0003782,69.9986,317.0821,273.6623,86.414,-6.7666e-06,-1.027e-05,0.0,0 STARLINK-5893,1 55952U 23037AQ  23156.43147875 -.00001027  00000-0 -67666-5 0  9995,2 55952  69.9986 317.0821 0003782 273.6623  86.4140 15.69920624 13030,6737.261,91.724,361.674,356.578,0.0
55952.0,STARLINK-5893,PAYLOAD,2023-06-05 13:24:49,15.69922658,0.0003874,69.9984,316.7247,274.318,85.7573,4.1516e-06,2.86e-06,0.0,0 STARLINK-5893,1 55952U 23037AQ  23156.55890950  .00000286  00000-0  41516-5 0  9997,2 55952  69.9984 316.7247 0003874 274.3180  85.7573 15.69922658 12719,6737.255,91.724,361.73,356.51,0.0
55952.0,STARLINK-5893,PAYLOAD,2023-06-05 21:03:34,15.69934748,0.0003494,70.0005,315.83,277.9011,82.1788,2.0968e-05,2.31e-05,0.0,0 STARLINK-5893,1 55952U 23037AQ  23156.87748451  .00002310  00000-0  20968-4 0  9997,2 55952  70.0005 315.8300 0003494 277.9011  82.1788 15.69934748 12763,6737.221,91.724,361.44,356.732,0.0
55952.0,STARLINK-5893,PAYLOAD,2023-06-06 13:52:51,15.69923922,0.0003076,70.0006,313.8577,269.0402,91.0441,5.1695e-08,-2.06e-06,0.0,0 STARLINK-5893,1 55952U 23037AQ  23157.57837423 -.00000206  00000-0  51695-7 0  9990,2 55952  70.0006 313.8577 0003076 269.0402  91.0441 15.69923922 13218,6737.252,91.724,361.189,357.044,0.0
55952.0,STARLINK-5893,PAYLOAD,2023-06-06 19:59:51,15.69928969,0.0003478,70.0,313.14,277.0647,83.0153,1.0812e-05,1.088e-05,0.0,0 STARLINK-5893,1 55952U 23037AQ  23157.83323890  .00001088  00000-0  10812-4 0  9998,2 55952  70.0000 313.1400 0003478 277.0647  83.0153 15.69928969 12919,6737.237,91.724,361.445,356.759,0.0
55952.0,STARLINK-5893,PAYLOAD,2023-06-06 23:03:22,15.69921843,0.0003298,69.9991,312.7813,284.268,75.8149,-5.7278e-06,-9.01e-06,0.0,0 STARLINK-5893,1 55952U 23037AQ  23157.96067517 -.00000901  00000-0 -57278-5 0  9996,2 55952  69.9991 312.7813 0003298 284.2680  75.8149 15.69921843 12935,6737.258,91.724,361.345,356.901,0.0
55952.0,STARLINK-5893,PAYLOAD,2023-06-07 18:56:08,15.69929457,0.0003631,69.9987,310.4524,275.5868,84.4913,6.8014e-06,6.05e-06,0.0,0 STARLINK-5893,1 55952U 23037AQ  23158.78898639  .00000605  00000-0  68014-5 0  9993,2 55952  69.9987 310.4524 0003631 275.5868  84.4913 15.69929457 13065,6737.236,91.724,361.547,356.655,0.0
55952.0,STARLINK-5893,PAYLOAD,2023-06-07 21:59:38,15.699291,0.000361,69.9988,310.0935,275.7524,84.326,7.9078e-06,7.38e-06,0.0,0 STARLINK-5893,1 55952U 23037AQ  23158.91642216  .00000738  00000-0  79078-5 0  9995,2 55952  69.9988 310.0935 0003610 275.7524  84.3260 15.69929100 13425,6737.237,91.724,361.534,356.67,0.0
55952.0,STARLINK-5893,PAYLOAD,2023-06-08 11:45:25,15.69924144,0.0003593,69.9993,308.4811,273.9974,86.0811,-5.9821e-06,-9.32e-06,0.0,0 STARLINK-5893,1 55952U 23037AQ  23159.48987603 -.00000932  00000-0 -59821-5 0  9992,2 55952  69.9993 308.4811 0003593 273.9974  86.0811 15.69924144 13170,6737.251,91.724,361.537,356.695,0.0
55952.0,STARLINK-5893,PAYLOAD,2023-06-08 13:17:10,15.69923357,0.0003511,70.0001,308.3028,276.7313,83.3483,4.1698e-06,2.89e-06,0.0,0 STARLINK-5893,1 55952U 23037AQ  23159.55359356  .00000289  00000-0  41698-5 0  9994,2 55952  70.0001 308.3028 0003511 276.7313  83.3483 15.69923357 13529,6737.253,91.724,361.484,356.753,0.0
